ONEWEB-0716             
1 55177U 23004AP  25197.17947538  .00000067  00000+0  13939-3 0  9992
2 55177  87.9044  72.7677 0001991  85.0317 275.1042 13.17648785123332
ONEWEB-0717             
1 55178U 23004AQ  25196.93479155  .00000085  00000+0  18599-3 0  9998
2 55178  87.9046  72.7751 0001089  70.7935 289.3314 13.17648545123358
ONEWEB-0719             
1 55179U 23004AR  25196.94491470  .00000142  00000+0  33144-3 0  9991
2 55179  87.9046  72.7571 0001874  87.6026 272.5320 13.17649286123308
ONEWEB-0530             
1 55796U 23029A   25196.80605914  .00000067  00000+0  13317-3 0  9994
2 55796  87.9284 341.4917 0001514 110.1865 249.9431 13.20771765116744
ONEWEB-0534             
1 55797U 23029B   25196.94494848 -.00000040  00000+0 -12977-3 0  9996
2 55797  87.9280 341.4712 0001977  98.6334 261.5023 13.20770525116760
ONEWEB-0556             
1 55798U 23029C   25196.79975382  .00000128  00000+0  28263-3 0  9997
2 55798  87.9282 341.4924 0002181 118.1359 241.9995 13.20772714116741
ONEWEB-0562             
1 55799U 23029D   25196.93863495 -.00000020  00000+0 -80337-4 0  9999
2 55799  87.9277 341.4573 0001609 127.8342 232.2937 13.20770399116767
ONEWEB-0563             
1 55800U 23029E   25196.93231642 -.00000044  00000+0 -14097-3 0  9990
2 55800  87.9284 341.4738 0002163  97.6214 262.5165 13.20770290116757
